{
  "version": 1,
  "fetchedAt": "2026-06-16T16:59:36.124Z",
  "source": "celestrak-gp",
  "counts": {
    "station": 25,
    "satellite": 400,
    "debris": 250
  },
  "objects": [
    {
      "id": "34007",
      "name": "COSMOS 2251 DEB",
      "noradId": 34007,
      "line1": "1 34007U 93036GS  26166.90408691  .00002869  00000+0  51902-3 0  9997",
      "line2": "2 34007  74.0182 350.0197 0045990  77.9635 282.6683 14.66173138917920",
      "category": "debris"
    },
    {
      "id": "34008",
      "name": "COSMOS 2251 DEB",
      "noradId": 34008,
      "line1": "1 34008U 93036GT  26167.26412544  .00000163  00000+0  68621-4 0  9992",
      "line2": "2 34008  74.0343 351.4355 0024103 303.6319 235.0538 14.33264312906223",
      "category": "debris"
    },
    {
      "id": "34009",
      "name": "COSMOS 2251 DEB",
      "noradId": 34009,
      "line1": "1 34009U 93036GU  26167.31473030  .00000223  00000+0  89899-4 0  9993",
      "line2": "2 34009  74.0372 357.7699 0027283  23.2690 151.8490 14.33363855906049",
      "category": "debris"
    },
    {
      "id": "34011",
      "name": "COSMOS 2251 DEB",
      "noradId": 34011,
      "line1": "1 34011U 93036GW  26167.23138539  .00001602  00000+0  48458-3 0  9996",
      "line2": "2 34011  74.0144 345.6471 0038452  28.8115 331.5153 14.42737118905900",
      "category": "debris"
    },
    {
      "id": "34014",
      "name": "COSMOS 2251 DEB",
      "noradId": 34014,
      "line1": "1 34014U 93036GZ  26166.69926354  .00003519  00000+0  51826-3 0  9990",
      "line2": "2 34014  74.0170 279.2120 0038762  12.6008 102.0082 14.75280081920290",
      "category": "debris"
    },
    {
      "id": "34015",
      "name": "COSMOS 2251 DEB",
      "noradId": 34015,
      "line1": "1 34015U 93036HA  26167.25422190  .00003207  00000+0  65116-3 0  9994",
      "line2": "2 34015  74.0225 164.6269 0021443 220.2827 151.3446 14.61455251912400",
      "category": "debris"
    },
    {
      "id": "34018",
      "name": "COSMOS 2251 DEB",
      "noradId": 34018,
      "line1": "1 34018U 93036HD  26167.30542014  .00000314  00000+0  24274-3 0  9997",
      "line2": "2 34018  73.8760 137.5430 0264240 139.4572 338.3152 13.81303790872198",
      "category": "debris"
    },
    {
      "id": "34019",
      "name": "COSMOS 2251 DEB",
      "noradId": 34019,
      "line1": "1 34019U 93036HE  26167.17709691  .00001279  00000+0  45220-3 0  9994",
      "line2": "2 34019  73.9528  69.4904 0061518 207.3652 275.0993 14.34622016901791",
      "category": "debris"
    },
    {
      "id": "34021",
      "name": "COSMOS 2251 DEB",
      "noradId": 34021,
      "line1": "1 34021U 93036HG  26167.17035571  .00001010  00000+0  26429-3 0  9999",
      "line2": "2 34021  74.0345 141.4724 0021362 240.4261 135.6538 14.50515660913187",
      "category": "debris"
    },
    {
      "id": "34022",
      "name": "COSMOS 2251 DEB",
      "noradId": 34022,
      "line1": "1 34022U 93036HH  26167.07720058  .00000380  00000+0  13068-3 0  9994",
      "line2": "2 34022  74.0544 289.2133 0023017 311.0053 227.3746 14.39212400908612",
      "category": "debris"
    },
    {
      "id": "34023",
      "name": "COSMOS 2251 DEB",
      "noradId": 34023,
      "line1": "1 34023U 93036HJ  26166.57043785  .00000594  00000+0  19299-3 0  9993",
      "line2": "2 34023  74.0250 269.5672 0019344 323.9993  57.2962 14.40932515908763",
      "category": "debris"
    },
    {
      "id": "34024",
      "name": "COSMOS 2251 DEB",
      "noradId": 34024,
      "line1": "1 34024U 93036HK  26167.20690175  .00000290  00000+0  10955-3 0  9999",
      "line2": "2 34024  74.0465 336.0036 0021491 343.8922 194.3970 14.35588550906855",
      "category": "debris"
    },
    {
      "id": "34026",
      "name": "COSMOS 2251 DEB",
      "noradId": 34026,
      "line1": "1 34026U 93036HM  26166.88409326  .00000686  00000+0  57635-3 0  9995",
      "line2": "2 34026  73.7676  29.3392 0346433 230.1670 148.9362 13.65651732860593",
      "category": "debris"
    },
    {
      "id": "34028",
      "name": "COSMOS 2251 DEB",
      "noradId": 34028,
      "line1": "1 34028U 93036HP  26167.19406603  .00000382  00000+0  44996-3 0  9996",
      "line2": "2 34028  73.8823  62.8442 0545950 169.5043 320.4526 13.20788926834566",
      "category": "debris"
    },
    {
      "id": "34031",
      "name": "COSMOS 2251 DEB",
      "noradId": 34031,
      "line1": "1 34031U 93036HS  26167.11060874  .00003231  00000+0  65486-3 0  9991",
      "line2": "2 34031  74.0116 141.0686 0023608 218.2487 267.8118 14.61500002912722",
      "category": "debris"
    },
    {
      "id": "34035",
      "name": "COSMOS 2251 DEB",
      "noradId": 34035,
      "line1": "1 34035U 93036HW  26167.29569227  .00003222  00000+0  76099-3 0  9992",
      "line2": "2 34035  74.0646 359.5038 0039384 320.4711 218.5082 14.54126198906611",
      "category": "debris"
    },
    {
      "id": "34036",
      "name": "COSMOS 2251 DEB",
      "noradId": 34036,
      "line1": "1 34036U 93036HX  26167.06569014  .00051808  00000+0  27981-2 0  9990",
      "line2": "2 34036  74.0060 129.4646 0011120 171.7056 188.4325 15.14410405913570",
      "category": "debris"
    },
    {
      "id": "34037",
      "name": "COSMOS 2251 DEB",
      "noradId": 34037,
      "line1": "1 34037U 93036HY  26167.18173008  .00001061  00000+0  37377-3 0  9995",
      "line2": "2 34037  74.0507  70.8696 0053012  76.0529 284.6511 14.35211211903772",
      "category": "debris"
    },
    {
      "id": "34040",
      "name": "COSMOS 2251 DEB",
      "noradId": 34040,
      "line1": "1 34040U 93036JB  26167.10545179  .00001584  00000+0  12484-2 0  9994",
      "line2": "2 34040  73.9561 119.3902 0336519  36.4813 325.8725 13.69064735861361",
      "category": "debris"
    },
    {
      "id": "34045",
      "name": "COSMOS 2251 DEB",
      "noradId": 34045,
      "line1": "1 34045U 93036JG  26166.88638951  .00000131  00000+0  55739-4 0  9993",
      "line2": "2 34045  74.0391 332.0354 0026341  10.9470 105.2447 14.34163078906879",
      "category": "debris"
    },
    {
      "id": "34046",
      "name": "COSMOS 2251 DEB",
      "noradId": 34046,
      "line1": "1 34046U 93036JH  26166.99361726  .00003321  00000+0  86661-3 0  9990",
      "line2": "2 34046  74.0387  24.0727 0077062  63.6342  56.6073 14.48091319905063",
      "category": "debris"
    },
    {
      "id": "34050",
      "name": "COSMOS 2251 DEB",
      "noradId": 34050,
      "line1": "1 34050U 93036JM  26167.10468521  .00001152  00000+0  69355-3 0  9991",
      "line2": "2 34050  74.0873  51.9242 0217757  72.1736  43.6673 13.96661539880195",
      "category": "debris"
    },
    {
      "id": "34053",
      "name": "COSMOS 2251 DEB",
      "noradId": 34053,
      "line1": "1 34053U 93036JQ  26166.81780283  .00000155  00000+0  15915-3 0  9998",
      "line2": "2 34053  73.8443 303.8350 0423460  61.6388 302.6738 13.49371345851800",
      "category": "debris"
    },
    {
      "id": "34056",
      "name": "COSMOS 2251 DEB",
      "noradId": 34056,
      "line1": "1 34056U 93036JT  26167.22815903  .00002343  00000+0  99329-3 0  9997",
      "line2": "2 34056  74.0578 104.3242 0125363 108.8461  12.3445 14.21770425890464",
      "category": "debris"
    },
    {
      "id": "34058",
      "name": "COSMOS 2251 DEB",
      "noradId": 34058,
      "line1": "1 34058U 93036JV  26167.22281795  .00000410  00000+0  38876-3 0  9998",
      "line2": "2 34058  73.9330 237.3957 0377228 197.5629 231.4115 13.56290285856570",
      "category": "debris"
    },
    {
      "id": "34059",
      "name": "COSMOS 2251 DEB",
      "noradId": 34059,
      "line1": "1 34059U 93036JW  26167.22141873  .00001448  00000+0  34952-3 0  9994",
      "line2": "2 34059  74.0365 196.0213 0018630 232.8074 203.0032 14.53996533911542",
      "category": "debris"
    },
    {
      "id": "34061",
      "name": "COSMOS 2251 DEB",
      "noradId": 34061,
      "line1": "1 34061U 93036JY  26166.75225573  .00000583  00000+0  19037-3 0  9990",
      "line2": "2 34061  74.0395 281.2880 0021028 316.5804 163.6874 14.40727537908443",
      "category": "debris"
    },
    {
      "id": "34062",
      "name": "COSMOS 2251 DEB",
      "noradId": 34062,
      "line1": "1 34062U 93036JZ  26167.30958584  .00008305  00000+0  95308-3 0  9993",
      "line2": "2 34062  74.0258 131.1838 0068859 164.6282 315.3230 14.84269539913442",
      "category": "debris"
    },
    {
      "id": "34064",
      "name": "COSMOS 2251 DEB",
      "noradId": 34064,
      "line1": "1 34064U 93036KB  26167.12145067  .00001043  00000+0  31889-3 0  9995",
      "line2": "2 34064  74.0323 286.7620 0022441 312.7956 225.2388 14.42942778908156",
      "category": "debris"
    },
    {
      "id": "34065",
      "name": "COSMOS 2251 DEB",
      "noradId": 34065,
      "line1": "1 34065U 93036KC  26167.33086469  .00000281  00000+0  10087-3 0  9999",
      "line2": "2 34065  74.0360 276.2113 0017111 330.7784  92.9738 14.38241029908734",
      "category": "debris"
    },
    {
      "id": "34070",
      "name": "COSMOS 2251 DEB",
      "noradId": 34070,
      "line1": "1 34070U 93036KH  26167.30646524  .00010545  00000+0  13058-2 0  9990",
      "line2": "2 34070  73.9987 109.8456 0020114 183.1393 303.3191 14.82660586913568",
      "category": "debris"
    },
    {
      "id": "34114",
      "name": "COSMOS 2251 DEB",
      "noradId": 34114,
      "line1": "1 34114U 93036KK  26167.08755161  .00005434  00000+0  11237-2 0  9990",
      "line2": "2 34114  74.0577  51.5299 0041554   5.7453 113.5600 14.60016594905038",
      "category": "debris"
    },
    {
      "id": "34115",
      "name": "COSMOS 2251 DEB",
      "noradId": 34115,
      "line1": "1 34115U 93036KL  26167.30146819  .00004043  00000+0  50368-3 0  9994",
      "line2": "2 34115  74.0049 235.0968 0030531   8.4266 351.7417 14.82497438921595",
      "category": "debris"
    }
  ]
}